FLOCK 4G-15             
1 62678U 25009BX  26068.71779869  .00012647  00000+0  47575-3 0  9991
2 62678  97.4054 151.1927 0003699 316.8208  43.2740 15.27266411121358
STARLINK-35941          
1 66583U 25268AC  26068.16753843  .00033482  00000+0  12194-2 0  9998
2 66583  43.0043 349.6827 0001704 259.9625 100.1035 15.27614759 17884
