[{"OBJECT_NAME":"FLOCK 4G-15","OBJECT_ID":"2025-009BX","EPOCH":"2026-03-09T17:13:37.807680","MEAN_MOTION":15.27266411,"ECCENTRICITY":0.00036988,"INCLINATION":97.4054,"RA_OF_ASC_NODE":151.1927,"ARG_OF_PERICENTER":316.8208,"MEAN_ANOMALY":43.274,"EPHEMERIS_TYPE":0,"CLASSIFICATION_TYPE":"U","NORAD_CAT_ID":62678,"ELEMENT_SET_NO":999,"REV_AT_EPOCH":12135,"BSTAR":0.00047574812,"MEAN_MOTION_DOT":0.00012647,"MEAN_MOTION_DDOT":0},{"OBJECT_NAME":"STARLINK-35941","OBJECT_ID":"2025-268AC","EPOCH":"2026-03-09T04:01:15.320352","MEAN_MOTION":15.27614759,"ECCENTRICITY":0.0001704,"INCLINATION":43.0043,"RA_OF_ASC_NODE":349.6827,"ARG_OF_PERICENTER":259.9625,"MEAN_ANOMALY":100.1035,"EPHEMERIS_TYPE":0,"CLASSIFICATION_TYPE":"U","NORAD_CAT_ID":66583,"ELEMENT_SET_NO":999,"REV_AT_EPOCH":1788,"BSTAR":0.0012194103,"MEAN_MOTION_DOT":0.00033482,"MEAN_MOTION_DDOT":0}]
